OBJECT_NAME,OBJECT_ID,EPOCH,MEAN_MOTION,ECCENTRICITY,INCLINATION,RA_OF_ASC_NODE,ARG_OF_PERICENTER,MEAN_ANOMALY,EPHEMERIS_TYPE,CLASSIFICATION_TYPE,NORAD_CAT_ID,ELEMENT_SET_NO,REV_AT_EPOCH,BSTAR,MEAN_MOTION_DOT,MEAN_MOTION_DDOT
BEIDOU-2 G8 (C01),2019-027A,2026-06-07T20:57:28.558944,1.00274717,.0010582,1.6337,74.4887,284.4674,356.1996,0,U,44231,999,2598,0,-.231E-5,0
COSMOS 2534 (758),2019-030A,2026-06-07T05:50:36.054240,2.13102468,.0013229,64.3678,192.9512,275.1737,155.4482,0,U,44299,999,5471,0,.85E-6,0
BEIDOU-3 IGSO-2 (C39),2019-035A,2026-06-06T13:55:17.483808,1.00270343,.00398392,55.2446,158.9549,216.2059,208.5586,0,U,44337,999,2556,0,-.62E-6,0
GPS BIII-2  (PRN 18),2019-056A,2026-06-06T04:10:38.785728,2.00569824,.00614516,55.6435,331.5809,197.4701,157.7136,0,U,44506,999,4984,0,-.63E-6,0
BEIDOU-3 M24 (C46),2019-061A,2026-06-07T00:58:04.809216,1.86229315,.0008273,54.3959,183.0702,359.3999,0.6544,0,U,44542,999,4560,0,.94E-6,0
BEIDOU-3 M23 (C45),2019-061B,2026-06-07T17:01:21.899136,1.86227606,.0005542,54.3944,183.0159,338.7482,21.4578,0,U,44543,999,4562,0,.102E-5,0
EUTELSAT 5 WEST B (EGNOS/PRN 121),2019-067A,2026-06-07T18:32:11.077152,1.00272044,.00032,0.0637,344.8390,92.0545,92.3348,0,U,44624,999,2434,0,-.27E-6,0
BEIDOU-3 IGSO-3 (C40),2019-073A,2026-05-16T19:27:04.075776,1.00246251,.0042953,54.8566,281.2355,189.4588,170.3676,0,U,44709,999,2414,0,-.217E-5,0
BEIDOU-3 M22 (C44),2019-078A,2026-06-06T21:07:11.358912,1.86227673,.0006612,53.9461,300.1905,49.5382,310.5120,0,U,44793,999,4445,0,-.55E-6,0
BEIDOU-3 M21 (C43),2019-078B,2026-06-07T13:21:56.170368,1.86228095,.0004474,53.9188,300.1280,47.4843,312.5464,0,U,44794,999,4447,0,-.56E-6,0
COSMOS 2544 (759),2019-088A,2026-06-07T15:27:34.197120,2.13102192,.0013654,65.5607,74.0490,259.6167,100.2516,0,U,44850,999,5051,0,-.1E-6,0
BEIDOU-3 M19 (C41),2019-090A,2026-06-06T10:56:36.782592,1.86231867,.00181153,56.5493,63.1460,297.5322,241.6390,0,U,44864,999,4403,0,-.38E-6,0
BEIDOU-3 M20 (C42),2019-090B,2026-06-06T07:44:50.540352,1.86231730,.00161406,56.5509,63.1852,310.9731,228.5055,0,U,44865,999,4401,0,-.38E-6,0
BEIDOU-3 G2 (C60),2020-017A,2026-06-07T20:39:07.817760,1.00273979,.0002594,2.8447,47.2015,27.4979,211.3897,0,U,45344,999,2316,0,-.126E-5,0
COSMOS 2545 (760),2020-018A,2026-06-07T20:08:25.794816,2.13102843,.0007948,64.3612,312.7475,231.5141,128.4125,0,U,45358,999,4846,0,-.31E-6,0
BEIDOU-3 G3 (C61),2020-040A,2026-06-07T20:47:51.980640,1.00272516,.0002954,2.4237,67.4294,338.0809,273.3033,0,U,45807,999,2197,0,-.339E-5,0
GPS BIII-3  (PRN 23),2020-041A,2026-06-07T12:21:18.802944,2.00559006,.0063521,56.6631,29.3193,204.6414,337.4617,0,U,45854,999,4384,0,-.67E-6,0
GALAXY 30 (WAAS/PRN 135),2020-056C,2026-06-07T17:58:02.449344,1.00272738,.0002255,0.0181,357.7373,76.6816,326.2340,0,U,46114,999,2119,0,.51E-6,0
COSMOS 2547 (705K),2020-075A,2026-06-05T05:06:49.888224,2.13100365,.0009155,64.5987,192.8757,239.4130,120.5675,0,U,46805,999,4365,0,.69E-6,0
GPS BIII-4  (PRN 14),2020-078A,2026-06-07T06:33:26.571744,2.00564936,.0073128,53.9811,211.1810,206.9373,136.7497,0,U,46826,999,4130,0,.49E-6,0
GPS BIII-5  (PRN 11),2021-054A,2026-06-07T06:49:20.921952,2.00569773,.0025078,55.1799,332.8582,228.6121,309.2145,0,U,48859,999,3655,0,-.62E-6,0
QZS-1R (QZSS/PRN 196),2021-096A,2026-06-07T15:44:18.159072,1.00259216,.0754275,37.4420,79.7260,271.5943,275.3757,0,U,49336,999,1691,0,-.231E-5,0
GSAT0223 (GALILEO 27),2021-116A,2026-06-07T14:31:34.893408,1.70476138,.0001255,57.1633,341.9344,184.5654,174.6195,0,U,49809,999,2801,0,-.63E-6,0
GSAT0224 (GALILEO 28),2021-116B,2026-06-07T03:44:18.749184,1.70476179,.0000936,57.1646,341.9453,147.8302,48.1138,0,U,49810,999,2803,0,-.63E-6,0
COSMOS 2557 (706K),2022-075A,2026-06-04T21:47:47.138208,2.13102273,.00101568,64.3043,314.9179,276.0496,83.8276,0,U,52984,999,3045,0,-.37E-6,0
COSMOS 2559 (707K),2022-130A,2026-06-06T03:15:13.547808,2.13101704,.00123738,64.2805,314.9582,177.2217,182.7817,0,U,54031,999,2845,0,-.32E-6,0
COSMOS 2564 (761),2022-161A,2026-06-06T10:45:20.053728,2.13102053,.00120549,64.7407,193.0683,224.2405,135.7317,0,U,54377,999,2740,0,.77E-6,0
GPS BIII-6  (PRN 28),2023-009A,2026-06-07T05:43:38.653248,2.00572185,.0006193,55.1217,148.9102,318.0671,224.9740,0,U,55268,999,2504,0,.101E-5,0
BEIDOU-3 G4 (C62),2023-066A,2026-06-07T20:56:13.678656,1.00267086,.0004422,0.4982,328.9847,169.6750,211.6462,0,U,56564,999,1130,0,-.267E-5,0
NVS-01 (IRNSS-1J),2023-076A,2026-06-07T20:53:13.964928,1.00270028,.0002956,2.1892,244.7803,40.8524,53.5361,0,U,56759,999,1102,0,-.32E-5,0
COSMOS 2569 (703K),2023-114A,2026-06-06T22:18:50.823360,2.13103762,.0011067,65.2965,72.9664,296.7940,63.1169,0,U,57517,999,2204,0,-.1E-6,0
